NORAD_CAT_ID,OBJECT_NAME,OBJECT_TYPE,EPOCH,MEAN_MOTION,ECCENTRICITY,INCLINATION,RA_OF_ASC_NODE,ARG_OF_PERICENTER,MEAN_ANOMALY,BSTAR,MEAN_MOTION_DOT,MEAN_MOTION_DDOT,TLE_LINE0,TLE_LINE1,TLE_LINE2,SEMIMAJOR_AXIS,PERIOD,APOGEE,PERIGEE,DECAYED
55637.0,STARLINK-5062,PAYLOAD,2024-06-07 13:28:56,14.98325873,0.0002936,69.9968,358.5571,270.4682,89.6141,8.0965e-05,8.73e-06,0.0,0 STARLINK-5062,1 55637U 23021K   24159.56177049  .00000873  00000-0  80965-4 0  9994,2 55637  69.9968 358.5571 0002936 270.4682  89.6141 14.98325873 72905,6950.206,96.107,574.111,570.03,0.0
55637.0,STARLINK-5062,PAYLOAD,2024-06-07 19:53:29,14.98329258,0.0002878,69.9961,357.8842,272.0773,88.0056,7.4871e-05,8e-06,0.0,0 STARLINK-5062,1 55637U 23021K   24159.82880911  .00000800  00000-0  74871-4 0  9991,2 55637  69.9961 357.8842 0002878 272.0773  88.0056 14.98329258 72948,6950.195,96.107,574.06,570.06,0.0
55637.0,STARLINK-5062,PAYLOAD,2024-06-08 00:41:53,14.98330996,0.0003016,70.0009,357.3791,271.0057,89.0756,9.3676e-05,1.025e-05,0.0,0 STARLINK-5062,1 55637U 23021K   24160.02908760  .00001025  00000-0  93676-4 0  9992,2 55637  70.0009 357.3791 0003016 271.0057  89.0756 14.98330996 72670,6950.19,96.107,574.151,569.959,0.0
55637.0,STARLINK-5062,PAYLOAD,2024-06-08 07:06:25,14.98336078,0.0002802,69.9948,356.7057,268.8618,91.222,2.0568e-05,1.52e-06,0.0,0 STARLINK-5062,1 55637U 23021K   24160.29612690  .00000152  00000-0  20568-4 0  9995,2 55637  69.9948 356.7057 0002802 268.8618  91.2220 14.98336078 73013,6950.174,96.107,573.987,570.092,0.0
55637.0,STARLINK-5062,PAYLOAD,2024-06-08 21:31:38,14.9833655,0.0003235,69.9992,355.1889,274.7786,85.3004,-0.00020996,-2.598e-05,0.0,0 STARLINK-5062,1 55637U 23021K   24160.89696981 -.00002598  00000-0 -20996-3 0  9998,2 55637  69.9992 355.1889 0003235 274.7786  85.3004 14.98336550 73100,6950.173,96.107,574.286,569.789,0.0
55637.0,STARLINK-5062,PAYLOAD,2024-06-08 23:07:45,14.98348134,0.0003359,70.0009,355.0212,273.7846,86.2929,-4.4273e-05,-6.22e-06,0.0,0 STARLINK-5062,1 55637U 23021K   24160.96371793 -.00000622  00000-0 -44273-4 0  9998,2 55637  70.0009 355.0212 0003359 273.7846  86.2929 14.98348134 72818,6950.137,96.106,574.336,569.667,0.0
55637.0,STARLINK-5062,PAYLOAD,2024-06-09 11:56:50,14.98325495,0.0003015,70.0001,353.674,266.737,93.3444,-7.9462e-05,-1.041e-05,0.0,0 STARLINK-5062,1 55637U 23021K   24161.49781234 -.00001041  00000-0 -79462-4 0  9996,2 55637  70.0001 353.6740 0003015 266.7370  93.3444 14.98325495 72897,6950.207,96.107,574.167,569.976,0.0
55637.0,STARLINK-5062,PAYLOAD,2024-06-09 21:33:39,14.98325108,0.0002738,70.0029,352.6665,275.7799,84.3047,-7.0415e-05,-9.33e-06,0.0,0 STARLINK-5062,1 55637U 23021K   24161.89837396 -.00000933  00000-0 -70415-4 0  9999,2 55637  70.0029 352.6665 0002738 275.7799  84.3047 14.98325108 73259,6950.208,96.107,573.976,570.17,0.0
55637.0,STARLINK-5062,PAYLOAD,2024-06-10 13:34:59,14.9833099,0.0003125,69.9999,350.9831,269.7221,90.358,-4.5123e-05,-6.31e-06,0.0,0 STARLINK-5062,1 55637U 23021K   24162.56596878 -.00000631  00000-0 -45123-4 0  9994,2 55637  69.9999 350.9831 0003125 269.7221  90.3580 14.98330990 73054,6950.19,96.107,574.227,569.883,0.0
55637.0,STARLINK-5062,PAYLOAD,2024-06-10 21:35:38,14.98435838,0.0002724,70.0005,350.1414,255.0953,104.9905,-0.0016409,-0.0001967,0.0,0 STARLINK-5062,1 55637U 23021K   24162.89975423 -.00019670  00000-0 -16409-2 0  9993,2 55637  70.0005 350.1414 0002724 255.0953 104.9905 14.98435838 73104,6949.866,96.1,573.624,569.837,0.0
55637.0,STARLINK-5062,PAYLOAD,2024-06-11 13:37:00,14.98324638,0.0002984,70.0004,348.4587,268.0621,92.0196,5.1763e-05,5.25e-06,0.0,0 STARLINK-5062,1 55637U 23021K   24163.56736946  .00000525  00000-0  51763-4 0  9994,2 55637  70.0004 348.4587 0002984 268.0621  92.0196 14.98324638 73506,6950.209,96.107,574.148,570.001,0.0
55637.0,STARLINK-5062,PAYLOAD,2024-06-11 23:13:48,14.98327801,0.0002812,70.0003,347.4493,267.8189,92.2648,9.4165e-05,1.031e-05,0.0,0 STARLINK-5062,1 55637U 23021K   24163.96792714  .00001031  00000-0  94165-4 0  9999,2 55637  70.0003 347.4493 0002812 267.8189  92.2648 14.98327801 73268,6950.2,96.107,574.019,570.11,0.0
55637.0,STARLINK-5062,PAYLOAD,2024-06-12 21:39:42,14.98328679,0.0003022,70.0003,345.0917,269.5674,90.5139,-3.7408e-05,-5.39e-06,0.0,0 STARLINK-5062,1 55637U 23021K   24164.90257102 -.00000539  00000-0 -37408-4 0  9992,2 55637  70.0003 345.0917 0003022 269.5674  90.5139 14.98328679 73704,6950.197,96.107,574.162,569.962,0.0
55637.0,STARLINK-5062,PAYLOAD,2024-06-13 13:41:02,14.98329898,0.0003086,70.0002,343.4083,270.131,89.9496,5.9761e-05,6.2e-06,0.0,0 STARLINK-5062,1 55637U 23021K   24165.57016713  .00000620  00000-0  59761-4 0  9992,2 55637  70.0002 343.4083 0003086 270.1310  89.9496 14.98329898 73504,6950.193,96.107,574.203,569.913,0.0
55637.0,STARLINK-5062,PAYLOAD,2024-06-13 21:41:42,14.98335436,0.0002985,70.0002,342.5662,268.1754,91.9063,7.0938e-05,7.54e-06,0.0,0 STARLINK-5062,1 55637U 23021K   24165.90396281  .00000754  00000-0  70938-4 0  9997,2 55637  70.0002 342.5662 0002985 268.1754  91.9063 14.98335436 73859,6950.176,96.107,574.116,569.966,0.0
55637.0,STARLINK-5062,PAYLOAD,2024-06-14 13:43:03,14.98330019,0.0003021,70.0003,340.8828,270.4329,89.6484,5.164e-05,5.23e-06,0.0,0 STARLINK-5062,1 55637U 23021K   24166.57156573  .00000523  00000-0  51640-4 0  9992,2 55637  70.0003 340.8828 0003021 270.4329  89.6484 14.98330019 73955,6950.193,96.107,574.157,569.958,0.0
55637.0,STARLINK-5062,PAYLOAD,2024-06-14 21:43:43,14.98334259,0.0003021,70.0003,340.0416,271.2666,88.8147,8.7654e-05,9.53e-06,0.0,0 STARLINK-5062,1 55637U 23021K   24166.90536161  .00000953  00000-0  87654-4 0  9995,2 55637  70.0003 340.0416 0003021 271.2666  88.8147 14.98334259 74007,6950.18,96.107,574.144,569.945,0.0
55637.0,STARLINK-5062,PAYLOAD,2024-06-15 13:45:04,14.98331446,0.0002866,70.0007,338.3583,272.7579,87.3252,-4.3468e-05,-6.12e-06,0.0,0 STARLINK-5062,1 55637U 23021K   24167.57296631 -.00000612  00000-0 -43468-4 0  9993,2 55637  70.0007 338.3583 0002866 272.7579  87.3252 14.98331446 73804,6950.188,96.107,574.045,570.061,0.0
55637.0,STARLINK-5062,PAYLOAD,2024-06-15 21:45:44,14.98333444,0.0002823,70.0008,337.5166,273.598,86.4856,-3.5932e-06,-1.36e-06,0.0,0 STARLINK-5062,1 55637U 23021K   24167.90676343 -.00000136  00000-0 -35932-5 0  9991,2 55637  70.0008 337.5166 0002823 273.5980  86.4856 14.98333444 74150,6950.182,96.107,574.009,570.085,0.0
55637.0,STARLINK-5062,PAYLOAD,2024-06-16 13:47:04,14.9833305,0.0002858,70.0006,335.8334,272.5793,87.5039,-1.3502e-05,-2.54e-06,0.0,0 STARLINK-5062,1 55637U 23021K   24168.57436248 -.00000254  00000-0 -13502-4 0  9992,2 55637  70.0006 335.8334 0002858 272.5793  87.5039 14.98333050 74254,6950.183,96.107,574.035,570.062,0.0
55637.0,STARLINK-5062,PAYLOAD,2024-06-16 20:11:37,14.9833289,0.000284,70.0007,335.1606,270.2796,89.8038,-7.9106e-06,-1.87e-06,0.0,0 STARLINK-5062,1 55637U 23021K   24168.84140182 -.00000187  00000-0 -79106-5 0  9999,2 55637  70.0007 335.1606 0002840 270.2796  89.8038 14.98332890 74298,6950.184,96.107,574.023,570.075,0.0
55637.0,STARLINK-5062,PAYLOAD,2024-06-17 20:13:38,14.98327077,0.00029,70.0006,332.6359,268.9445,91.1382,-3.2358e-05,-4.79e-06,0.0,0 STARLINK-5062,1 55637U 23021K   24169.84280592 -.00000479  00000-0 -32358-4 0  9991,2 55637  70.0006 332.6359 0002900 268.9445  91.1382 14.98327077 74149,6950.202,96.107,574.082,570.051,0.0
55637.0,STARLINK-5062,PAYLOAD,2024-06-17 21:49:46,14.98328005,0.0002897,70.0006,332.4675,268.7598,91.3229,-2.1104e-05,-3.45e-06,0.0,0 STARLINK-5062,1 55637U 23021K   24169.90956510 -.00000345  00000-0 -21104-4 0  9997,2 55637  70.0006 332.4675 0002897 268.7598  91.3229 14.98328005 74458,6950.199,96.107,574.078,570.051,0.0
55637.0,STARLINK-5062,PAYLOAD,2024-06-18 13:51:06,14.98329434,0.0003002,70.0005,330.7843,270.8241,89.2574,1.1925e-05,4.9e-07,0.0,0 STARLINK-5062,1 55637U 23021K   24170.57716338  .00000049  00000-0  11925-4 0  9993,2 55637  70.0005 330.7843 0003002 270.8241  89.2574 14.98329434 74550,6950.195,96.107,574.146,569.973,0.0
55637.0,STARLINK-5062,PAYLOAD,2024-06-18 20:15:39,14.98332113,0.0003028,70.0004,330.1108,270.714,89.3672,1.2485e-05,5.6e-07,0.0,0 STARLINK-5062,1 55637U 23021K   24170.84420144  .00000056  00000-0  12485-4 0  9990,2 55637  70.0004 330.1108 0003028 270.7140  89.3672 14.98332113 74291,6950.186,96.107,574.156,569.947,0.0
55637.0,STARLINK-5062,PAYLOAD,2024-06-19 12:17:00,14.98324119,0.0003035,70.0004,328.4273,270.6112,89.47,2.4662e-06,-6.4e-07,0.0,0 STARLINK-5062,1 55637U 23021K   24171.51180727 -.00000064  00000-0  24662-5 0  9996,2 55637  70.0004 328.4273 0003035 270.6112  89.4700 14.98324119 74391,6950.211,96.107,574.185,569.967,0.0
55637.0,STARLINK-5062,PAYLOAD,2024-06-19 13:53:08,14.98324033,0.0003039,70.0005,328.259,270.5799,89.5012,1.5229e-06,-7.5e-07,0.0,0 STARLINK-5062,1 55637U 23021K   24171.57856755 -.00000075  00000-0  15229-5 0  9994,2 55637  70.0005 328.2590 0003039 270.5799  89.5012 14.98324033 74703,6950.211,96.107,574.189,569.964,0.0
55637.0,STARLINK-5062,PAYLOAD,2024-06-19 20:17:40,14.98327459,0.0003029,70.0005,327.5853,269.5811,90.5001,1.735e-05,1.14e-06,0.0,0 STARLINK-5062,1 55637U 23021K   24171.84560542  .00000114  00000-0  17350-4 0  9999,2 55637  70.0005 327.5853 0003029 269.5811  90.5001 14.98327459 74748,6950.201,96.107,574.171,569.961,0.0
55637.0,STARLINK-5062,PAYLOAD,2024-06-20 13:55:08,14.98331764,0.0002995,70.0005,325.7336,269.8237,90.2579,3.2952e-05,3e-06,0.0,0 STARLINK-5062,1 55637U 23021K   24172.57996242  .00000300  00000-0  32952-4 0  9992,2 55637  70.0005 325.7336 0002995 269.8237  90.2579 14.98331764 74853,6950.187,96.107,574.134,569.971,0.0
55637.0,STARLINK-5062,PAYLOAD,2024-06-20 20:19:40,14.98333662,0.0003005,70.0006,325.0603,269.6827,90.3988,2.915e-05,2.55e-06,0.0,0 STARLINK-5062,1 55637U 23021K   24172.84700089  .00000255  00000-0  29150-4 0  9999,2 55637  70.0006 325.0603 0003005 269.6827  90.3988 14.98333662 74595,6950.182,96.107,574.135,569.958,0.0
